{
  "type": "FeatureCollection",
  "features": [
    {
      "type": "Feature",
      "properties": {
        "norad_id": 34913,
        "name": "COSMOS 2251 DEB",
        "group": "cosmos-2251-debris",
        "lat": -72.21359762666387,
        "lon": -126.91460571954194,
        "alt_km": 792.5990183474378,
        "timestamp": "2025-12-05T04:52:15.685665+00:00",
        "meta_object_name": "COSMOS 2251 DEB",
        "meta_object_id": "1993-036ADJ",
        "meta_epoch": "2025-12-04T06:07:38.155008",
        "meta_mean_motion": 14.34633258,
        "meta_eccentricity": 0.0020057,
        "meta_inclination": 74.0277,
        "meta_ra_of_asc_node": 298.0463,
        "meta_arg_of_pericenter": 50.7163,
        "meta_mean_anomaly": 15.0056,
        "meta_ephemeris_type": 0,
        "meta_classification_type": "U",
        "meta_norad_cat_id": 34913,
        "meta_element_set_no": 999,
        "meta_rev_at_epoch": 65066,
        "meta_bstar": 0.00010199,
        "meta_mean_motion_dot": 2.63e-06,
        "meta_mean_motion_ddot": 0,
        "tle_line1": "1 34913U 93036ADJ 25338.25530272  .00000263  00000+0  10199-3 0  9991",
        "tle_line2": "2 34913  74.0277 298.0463 0020057  50.7163  15.0056 14.34633258650666"
      },
      "geometry": {
        "type": "Point",
        "coordinates": [
          -126.91460571954194,
          -72.21359762666387
        ]
      }
    },
    {
      "type": "Feature",
      "properties": {
        "norad_id": 34918,
        "name": "COSMOS 2251 DEB",
        "group": "cosmos-2251-debris",
        "lat": 62.91375855739566,
        "lon": 1.9546975838481022,
        "alt_km": 699.696364456523,
        "timestamp": "2025-12-05T04:52:15.685674+00:00",
        "meta_object_name": "COSMOS 2251 DEB",
        "meta_object_id": "1993-036ADP",
        "meta_epoch": "2025-12-02T07:49:20.078112",
        "meta_mean_motion": 14.60858458,
        "meta_eccentricity": 0.0034182,
        "meta_inclination": 74.0712,
        "meta_ra_of_asc_node": 333.4916,
        "meta_arg_of_pericenter": 302.4495,
        "meta_mean_anomaly": 120.4085,
        "meta_ephemeris_type": 0,
        "meta_classification_type": "U",
        "meta_norad_cat_id": 34918,
        "meta_element_set_no": 999,
        "meta_rev_at_epoch": 65184,
        "meta_bstar": 0.0024749,
        "meta_mean_motion_dot": 0.00012194,
        "meta_mean_motion_ddot": 0,
        "tle_line1": "1 34918U 93036ADP 25336.32592683  .00012194  00000+0  24749-2 0  9997",
        "tle_line2": "2 34918  74.0712 333.4916 0034182 302.4495 120.4085 14.60858458651845"
      },
      "geometry": {
        "type": "Point",
        "coordinates": [
          1.9546975838481022,
          62.91375855739566
        ]
      }
    },
    {
      "type": "Feature",
      "properties": {
        "norad_id": 34924,
        "name": "COSMOS 2251 DEB",
        "group": "cosmos-2251-debris",
        "lat": 73.72372543733658,
        "lon": -154.7450324272018,
        "alt_km": 690.5806477616843,
        "timestamp": "2025-12-05T04:52:15.685683+00:00",
        "meta_object_name": "COSMOS 2251 DEB",
        "meta_object_id": "1993-036ADV",
        "meta_epoch": "2025-12-04T12:34:50.258784",
        "meta_mean_motion": 14.5989509,
        "meta_eccentricity": 0.005518,
        "meta_inclination": 74.0399,
        "meta_ra_of_asc_node": 105.1196,
        "meta_arg_of_pericenter": 191.6222,
        "meta_mean_anomaly": 296.2894,
        "meta_ephemeris_type": 0,
        "meta_classification_type": "U",
        "meta_norad_cat_id": 34924,
        "meta_element_set_no": 999,
        "meta_rev_at_epoch": 87603,
        "meta_bstar": 0.0025764,
        "meta_mean_motion_dot": 0.00012595,
        "meta_mean_motion_ddot": 0,
        "tle_line1": "1 34924U 93036ADV 25338.52419281  .00012595  00000+0  25764-2 0  9993",
        "tle_line2": "2 34924  74.0399 105.1196 0055180 191.6222 296.2894 14.59895090876035"
      },
      "geometry": {
        "type": "Point",
        "coordinates": [
          -154.7450324272018,
          73.72372543733658
        ]
      }
    },
    {
      "type": "Feature",
      "properties": {
        "norad_id": 34944,
        "name": "COSMOS 2251 DEB",
        "group": "cosmos-2251-debris",
        "lat": -2.182248964938322,
        "lon": -115.00319520209047,
        "alt_km": 863.1565845659534,
        "timestamp": "2025-12-05T04:52:15.685692+00:00",
        "meta_object_name": "COSMOS 2251 DEB",
        "meta_object_id": "1993-036ADX",
        "meta_epoch": "2025-12-04T10:12:22.291200",
        "meta_mean_motion": 14.14155566,
        "meta_eccentricity": 0.0219658,
        "meta_inclination": 73.7499,
        "meta_ra_of_asc_node": 247.036,
        "meta_arg_of_pericenter": 96.0924,
        "meta_mean_anomaly": 266.529,
        "meta_ephemeris_type": 0,
        "meta_classification_type": "U",
        "meta_norad_cat_id": 34944,
        "meta_element_set_no": 999,
        "meta_rev_at_epoch": 63965,
        "meta_bstar": 0.0011088,
        "meta_mean_motion_dot": 2.638e-05,
        "meta_mean_motion_ddot": 0,
        "tle_line1": "1 34944U 93036ADX 25338.42525800  .00002638  00000+0  11088-2 0  9990",
        "tle_line2": "2 34944  73.7499 247.0360 0219658  96.0924 266.5290 14.14155566639655"
      },
      "geometry": {
        "type": "Point",
        "coordinates": [
          -115.00319520209047,
          -2.182248964938322
        ]
      }
    },
    {
      "type": "Feature",
      "properties": {
        "norad_id": 34946,
        "name": "COSMOS 2251 DEB",
        "group": "cosmos-2251-debris",
        "lat": -60.52549572473725,
        "lon": -152.98693673691156,
        "alt_km": 704.6583778996337,
        "timestamp": "2025-12-05T04:52:15.685701+00:00",
        "meta_object_name": "COSMOS 2251 DEB",
        "meta_object_id": "1993-036ADZ",
        "meta_epoch": "2025-12-03T18:54:41.961024",
        "meta_mean_motion": 14.61916973,
        "meta_eccentricity": 0.00490667,
        "meta_inclination": 74.0235,
        "meta_ra_of_asc_node": 359.265,
        "meta_arg_of_pericenter": 139.3091,
        "meta_mean_anomaly": 221.1759,
        "meta_ephemeris_type": 0,
        "meta_classification_type": "U",
        "meta_norad_cat_id": 34946,
        "meta_element_set_no": 999,
        "meta_rev_at_epoch": 88078,
        "meta_bstar": 0.00080246864,
        "meta_mean_motion_dot": 4.057e-05,
        "meta_mean_motion_ddot": 0,
        "tle_line1": "1 34946U 93036ADZ 25337.78798566  .00004057  00000+0  80247-3 0  9992",
        "tle_line2": "2 34946  74.0235 359.2650 0049066 139.3091 221.1759 14.61916973880785"
      },
      "geometry": {
        "type": "Point",
        "coordinates": [
          -152.98693673691156,
          -60.52549572473725
        ]
      }
    },
    {
      "type": "Feature",
      "properties": {
        "norad_id": 34949,
        "name": "COSMOS 2251 DEB",
        "group": "cosmos-2251-debris",
        "lat": 3.5836259971143107,
        "lon": -56.64940977946675,
        "alt_km": 655.2569611185427,
        "timestamp": "2025-12-05T04:52:15.685710+00:00",
        "meta_object_name": "COSMOS 2251 DEB",
        "meta_object_id": "1993-036AEC",
        "meta_epoch": "2025-12-04T03:37:52.111776",
        "meta_mean_motion": 14.73902781,
        "meta_eccentricity": 0.00804587,
        "meta_inclination": 74.0169,
        "meta_ra_of_asc_node": 126.4325,
        "meta_arg_of_pericenter": 273.4906,
        "meta_mean_anomaly": 85.7067,
        "meta_ephemeris_type": 0,
        "meta_classification_type": "U",
        "meta_norad_cat_id": 34949,
        "meta_element_set_no": 999,
        "meta_rev_at_epoch": 88235,
        "meta_bstar": 0.0010125987,
        "meta_mean_motion_dot": 6.966e-05,
        "meta_mean_motion_ddot": 0,
        "tle_line1": "1 34949U 93036AEC 25338.15129759  .00006966  00000+0  10126-2 0  9998",
        "tle_line2": "2 34949  74.0169 126.4325 0080458 273.4906  85.7067 14.73902781882358"
      },
      "geometry": {
        "type": "Point",
        "coordinates": [
          -56.64940977946675,
          3.5836259971143107
        ]
      }
    },
    {
      "type": "Feature",
      "properties": {
        "norad_id": 34953,
        "name": "COSMOS 2251 DEB",
        "group": "cosmos-2251-debris",
        "lat": -65.66678507118114,
        "lon": 2.9351215995183226,
        "alt_km": 683.7818012155512,
        "timestamp": "2025-12-05T04:52:15.685719+00:00",
        "meta_object_name": "COSMOS 2251 DEB",
        "meta_object_id": "1993-036AEG",
        "meta_epoch": "2025-12-04T15:09:48.236256",
        "meta_mean_motion": 14.68844667,
        "meta_eccentricity": 0.0057678,
        "meta_inclination": 74.0939,
        "meta_ra_of_asc_node": 43.1298,
        "meta_arg_of_pericenter": 37.7172,
        "meta_mean_anomaly": 112.6918,
        "meta_ephemeris_type": 0,
        "meta_classification_type": "U",
        "meta_norad_cat_id": 34953,
        "meta_element_set_no": 999,
        "meta_rev_at_epoch": 88009,
        "meta_bstar": 0.0019887,
        "meta_mean_motion_dot": 0.00011906,
        "meta_mean_motion_ddot": 0,
        "tle_line1": "1 34953U 93036AEG 25338.63180829  .00011906  00000+0  19887-2 0  9994",
        "tle_line2": "2 34953  74.0939  43.1298 0057678  37.7172 112.6918 14.68844667880092"
      },
      "geometry": {
        "type": "Point",
        "coordinates": [
          2.9351215995183226,
          -65.66678507118114
        ]
      }
    }
  ]
}